[{"OBJECT_NAME":"STARLINK-11586 [DTC]","OBJECT_ID":"2025-032E","EPOCH":"2025-08-27T04:31:36.574464","MEAN_MOTION":15.70860431,"ECCENTRICITY":8.074e-5,"INCLINATION":42.9979,"RA_OF_ASC_NODE":287.7467,"ARG_OF_PERICENTER":195.3555,"MEAN_ANOMALY":164.7288,"EPHEMERIS_TYPE":0,"CLASSIFICATION_TYPE":"U","NORAD_CAT_ID":63009,"ELEMENT_SET_NO":999,"REV_AT_EPOCH":3162,"BSTAR":0.0019334721,"MEAN_MOTION_DOT":0.00255648,"MEAN_MOTION_DDOT":0},{"OBJECT_NAME":"STARLINK-11574 [DTC]","OBJECT_ID":"2025-032F","EPOCH":"2025-08-27T04:46:54.192576","MEAN_MOTION":15.70980544,"ECCENTRICITY":0.00044729,"INCLINATION":42.9987,"RA_OF_ASC_NODE":287.8327,"ARG_OF_PERICENTER":290.6577,"MEAN_ANOMALY":69.3811,"EPHEMERIS_TYPE":0,"CLASSIFICATION_TYPE":"U","NORAD_CAT_ID":63010,"ELEMENT_SET_NO":999,"REV_AT_EPOCH":3162,"BSTAR":0.0015120604,"MEAN_MOTION_DOT":0.00199537,"MEAN_MOTION_DDOT":0},{"OBJECT_NAME":"STARLINK-11580 [DTC]","OBJECT_ID":"2025-032G","EPOCH":"2025-08-27T04:08:40.425504","MEAN_MOTION":15.7090885,"ECCENTRICITY":0.00012872,"INCLINATION":42.9983,"RA_OF_ASC_NODE":287.6178,"ARG_OF_PERICENTER":259.6568,"MEAN_ANOMALY":100.4155,"EPHEMERIS_TYPE":0,"CLASSIFICATION_TYPE":"U","NORAD_CAT_ID":63011,"ELEMENT_SET_NO":999,"REV_AT_EPOCH":3147,"BSTAR":0.0020564336,"MEAN_MOTION_DOT":0.00273063,"MEAN_MOTION_DDOT":0},{"OBJECT_NAME":"STARLINK-11449 [DTC]","OBJECT_ID":"2025-032H","EPOCH":"2025-08-27T04:23:57.709248","MEAN_MOTION":15.71006504,"ECCENTRICITY":0.00013418,"INCLINATION":42.9966,"RA_OF_ASC_NODE":287.7005,"ARG_OF_PERICENTER":235.725,"MEAN_ANOMALY":124.3491,"EPHEMERIS_TYPE":0,"CLASSIFICATION_TYPE":"U","NORAD_CAT_ID":63012,"ELEMENT_SET_NO":999,"REV_AT_EPOCH":3162,"BSTAR":0.0018064267,"MEAN_MOTION_DOT":0.00239825,"MEAN_MOTION_DDOT":0},{"OBJECT_NAME":"STARLINK-11577 [DTC]","OBJECT_ID":"2025-032J","EPOCH":"2025-08-27T04:39:15.473376","MEAN_MOTION":15.70982104,"ECCENTRICITY":0.00041572,"INCLINATION":43.0003,"RA_OF_ASC_NODE":287.7886,"ARG_OF_PERICENTER":288.362,"MEAN_ANOMALY":71.6795,"EPHEMERIS_TYPE":0,"CLASSIFICATION_TYPE":"U","NORAD_CAT_ID":63013,"ELEMENT_SET_NO":999,"REV_AT_EPOCH":3162,"BSTAR":0.0015341312,"MEAN_MOTION_DOT":0.0020253,"MEAN_MOTION_DDOT":0},{"OBJECT_NAME":"STARLINK-11578 [DTC]","OBJECT_ID":"2025-032K","EPOCH":"2025-08-27T03:30:38.069280","MEAN_MOTION":15.70958772,"ECCENTRICITY":0.00055312,"INCLINATION":42.999,"RA_OF_ASC_NODE":288.3004,"ARG_OF_PERICENTER":291.191,"MEAN_ANOMALY":68.8366,"EPHEMERIS_TYPE":0,"CLASSIFICATION_TYPE":"U","NORAD_CAT_ID":63014,"ELEMENT_SET_NO":999,"REV_AT_EPOCH":3156,"BSTAR":0.001429052,"MEAN_MOTION_DOT":0.00188174,"MEAN_MOTION_DDOT":0},{"OBJECT_NAME":"STARLINK-11541 [DTC]","OBJECT_ID":"2025-032L","EPOCH":"2025-08-27T04:01:01.632864","MEAN_MOTION":15.70897578,"ECCENTRICITY":0.00010887,"INCLINATION":42.9986,"RA_OF_ASC_NODE":287.5731,"ARG_OF_PERICENTER":256.5033,"MEAN_ANOMALY":103.5713,"EPHEMERIS_TYPE":0,"CLASSIFICATION_TYPE":"U","NORAD_CAT_ID":63015,"ELEMENT_SET_NO":999,"REV_AT_EPOCH":3163,"BSTAR":0.0015777333,"MEAN_MOTION_DOT":0.00207635,"MEAN_MOTION_DDOT":0},{"OBJECT_NAME":"STARLINK-11545 [DTC]","OBJECT_ID":"2025-032M","EPOCH":"2025-08-26T20:38:31.708608","MEAN_MOTION":15.70905692,"ECCENTRICITY":0.00010553,"INCLINATION":42.9987,"RA_OF_ASC_NODE":289.5749,"ARG_OF_PERICENTER":310.61,"MEAN_ANOMALY":49.4676,"EPHEMERIS_TYPE":0,"CLASSIFICATION_TYPE":"U","NORAD_CAT_ID":63016,"ELEMENT_SET_NO":999,"REV_AT_EPOCH":3158,"BSTAR":0.0018286876,"MEAN_MOTION_DOT":0.00241819,"MEAN_MOTION_DDOT":0},{"OBJECT_NAME":"STARLINK-11400 [DTC]","OBJECT_ID":"2025-032N","EPOCH":"2025-08-27T03:22:59.255904","MEAN_MOTION":15.70965157,"ECCENTRICITY":0.00033564,"INCLINATION":42.9985,"RA_OF_ASC_NODE":288.2553,"ARG_OF_PERICENTER":293.1034,"MEAN_ANOMALY":66.948,"EPHEMERIS_TYPE":0,"CLASSIFICATION_TYPE":"U","NORAD_CAT_ID":63017,"ELEMENT_SET_NO":999,"REV_AT_EPOCH":3161,"BSTAR":0.0014749176,"MEAN_MOTION_DOT":0.0019434,"MEAN_MOTION_DDOT":0},{"OBJECT_NAME":"STARLINK-32870","OBJECT_ID":"2025-032P","EPOCH":"2025-08-26T08:15:45.439488","MEAN_MOTION":15.27603592,"ECCENTRICITY":0.0001462,"INCLINATION":43.002,"RA_OF_ASC_NODE":359.3226,"ARG_OF_PERICENTER":261.7038,"MEAN_ANOMALY":98.3648,"EPHEMERIS_TYPE":0,"CLASSIFICATION_TYPE":"U","NORAD_CAT_ID":63018,"ELEMENT_SET_NO":999,"REV_AT_EPOCH":3074,"BSTAR":0.0010497574,"MEAN_MOTION_DOT":0.00028758,"MEAN_MOTION_DDOT":0},{"OBJECT_NAME":"STARLINK-32872","OBJECT_ID":"2025-032Q","EPOCH":"2025-08-27T00:28:46.184736","MEAN_MOTION":15.27593703,"ECCENTRICITY":0.00012426,"INCLINATION":42.9989,"RA_OF_ASC_NODE":355.7995,"ARG_OF_PERICENTER":288.6533,"MEAN_ANOMALY":71.4184,"EPHEMERIS_TYPE":0,"CLASSIFICATION_TYPE":"U","NORAD_CAT_ID":63019,"ELEMENT_SET_NO":999,"REV_AT_EPOCH":3084,"BSTAR":0.00050657646,"MEAN_MOTION_DOT":0.0001371,"MEAN_MOTION_DDOT":0},{"OBJECT_NAME":"STARLINK-32677","OBJECT_ID":"2025-032R","EPOCH":"2025-08-26T14:37:56.081568","MEAN_MOTION":15.27592653,"ECCENTRICITY":2.885e-5,"INCLINATION":42.9975,"RA_OF_ASC_NODE":357.8801,"ARG_OF_PERICENTER":311.4417,"MEAN_ANOMALY":48.641,"EPHEMERIS_TYPE":0,"CLASSIFICATION_TYPE":"U","NORAD_CAT_ID":63020,"ELEMENT_SET_NO":999,"REV_AT_EPOCH":3077,"BSTAR":0.0010267289,"MEAN_MOTION_DOT":0.0002811,"MEAN_MOTION_DDOT":0},{"OBJECT_NAME":"STARLINK-32929","OBJECT_ID":"2025-032S","EPOCH":"2025-08-26T08:26:51.679392","MEAN_MOTION":15.27611682,"ECCENTRICITY":0.00012294,"INCLINATION":43.0023,"RA_OF_ASC_NODE":359.3818,"ARG_OF_PERICENTER":259.3367,"MEAN_ANOMALY":100.7346,"EPHEMERIS_TYPE":0,"CLASSIFICATION_TYPE":"U","NORAD_CAT_ID":63021,"ELEMENT_SET_NO":999,"REV_AT_EPOCH":3074,"BSTAR":0.0013765701,"MEAN_MOTION_DOT":0.00037849,"MEAN_MOTION_DDOT":0},{"OBJECT_NAME":"STARLINK-32944","OBJECT_ID":"2025-032T","EPOCH":"2025-08-27T00:34:19.507296","MEAN_MOTION":15.27597154,"ECCENTRICITY":0.00016411,"INCLINATION":43.002,"RA_OF_ASC_NODE":355.8337,"ARG_OF_PERICENTER":276.8542,"MEAN_ANOMALY":83.2123,"EPHEMERIS_TYPE":0,"CLASSIFICATION_TYPE":"U","NORAD_CAT_ID":63022,"ELEMENT_SET_NO":999,"REV_AT_EPOCH":3084,"BSTAR":0.00077436722,"MEAN_MOTION_DOT":0.00021119,"MEAN_MOTION_DDOT":0},{"OBJECT_NAME":"STARLINK-32943","OBJECT_ID":"2025-032U","EPOCH":"2025-08-27T01:05:33.760896","MEAN_MOTION":15.27602807,"ECCENTRICITY":0.00018198,"INCLINATION":43.004,"RA_OF_ASC_NODE":355.1316,"ARG_OF_PERICENTER":272.5361,"MEAN_ANOMALY":87.5282,"EPHEMERIS_TYPE":0,"CLASSIFICATION_TYPE":"U","NORAD_CAT_ID":63023,"ELEMENT_SET_NO":999,"REV_AT_EPOCH":3085,"BSTAR":0.00089101137,"MEAN_MOTION_DOT":0.00024355,"MEAN_MOTION_DDOT":0},{"OBJECT_NAME":"STARLINK-32803","OBJECT_ID":"2025-032V","EPOCH":"2025-08-27T01:00:01.113120","MEAN_MOTION":15.27597909,"ECCENTRICITY":0.00014377,"INCLINATION":43.0041,"RA_OF_ASC_NODE":355.0983,"ARG_OF_PERICENTER":282.7926,"MEAN_ANOMALY":77.2765,"EPHEMERIS_TYPE":0,"CLASSIFICATION_TYPE":"U","NORAD_CAT_ID":63024,"ELEMENT_SET_NO":999,"REV_AT_EPOCH":3069,"BSTAR":0.00083977156,"MEAN_MOTION_DOT":0.00022931,"MEAN_MOTION_DDOT":0}]
