STARLINK-11586 [DTC]    
1 63009U 25032E   25239.18861776  .00255648  00000+0  19335-2 0  9997
2 63009  42.9979 287.7467 0000807 195.3555 164.7288 15.70860431 31622
STARLINK-11574 [DTC]    
1 63010U 25032F   25239.19923834  .00199537  00000+0  15121-2 0  9997
2 63010  42.9987 287.8327 0004472 290.6577  69.3811 15.70980544 31624
STARLINK-11580 [DTC]    
1 63011U 25032G   25239.17269011  .00273063  00000+0  20564-2 0  9990
2 63011  42.9983 287.6178 0001287 259.6568 100.4155 15.70908850 31470
STARLINK-11449 [DTC]    
1 63012U 25032H   25239.18330682  .00239825  00000+0  18064-2 0  9995
2 63012  42.9966 287.7005 0001341 235.7250 124.3491 15.71006504 31627
STARLINK-11577 [DTC]    
1 63013U 25032J   25239.19392909  .00202530  00000+0  15341-2 0  9995
2 63013  43.0003 287.7886 0004157 288.3620  71.6795 15.70982104 31621
STARLINK-11578 [DTC]    
1 63014U 25032K   25239.14627395  .00188174  00000+0  14291-2 0  9991
2 63014  42.9990 288.3004 0005531 291.1910  68.8366 15.70958772 31564
STARLINK-11541 [DTC]    
1 63015U 25032L   25239.16738001  .00207635  00000+0  15777-2 0  9995
2 63015  42.9986 287.5731 0001088 256.5033 103.5713 15.70897578 31639
STARLINK-11545 [DTC]    
1 63016U 25032M   25238.86008922  .00241819  00000+0  18287-2 0  9995
2 63016  42.9987 289.5749 0001055 310.6100  49.4676 15.70905692 31580
STARLINK-11400 [DTC]    
1 63017U 25032N   25239.14096361  .00194340  00000+0  14749-2 0  9997
2 63017  42.9985 288.2553 0003356 293.1034  66.9480 15.70965157 31618
STARLINK-32870          
1 63018U 25032P   25238.34427592  .00028758  00000+0  10498-2 0  9999
2 63018  43.0020 359.3226 0001462 261.7038  98.3648 15.27603592 30741
STARLINK-32872          
1 63019U 25032Q   25239.01997899  .00013710  00000+0  50658-3 0  9992
2 63019  42.9989 355.7995 0001242 288.6533  71.4184 15.27593703 30841
STARLINK-32677          
1 63020U 25032R   25238.60967687  .00028110  00000+0  10267-2 0  9991
2 63020  42.9975 357.8801 0000288 311.4417  48.6410 15.27592653 30775
STARLINK-32929          
1 63021U 25032S   25238.35198703  .00037849  00000+0  13766-2 0  9995
2 63021  43.0023 359.3818 0001229 259.3367 100.7346 15.27611682 30746
STARLINK-32944          
1 63022U 25032T   25239.02383689  .00021119  00000+0  77437-3 0  9999
2 63022  43.0020 355.8337 0001641 276.8542  83.2123 15.27597154 30844
STARLINK-32943          
1 63023U 25032U   25239.04552964  .00024355  00000+0  89101-3 0  9992
2 63023  43.0040 355.1316 0001819 272.5361  87.5282 15.27602807 30852
STARLINK-32803          
1 63024U 25032V   25239.04167955  .00022931  00000+0  83977-3 0  9998
2 63024  43.0041 355.0983 0001437 282.7926  77.2765 15.27597909 30699
